$$SOE
2460147.500000000, A.D. 2023-Jul-22 00:00:00.0000, 2.862691777539865E+08, -2.494832478162098E+08, -5.632508825835493E+07,
2460154.500000000, A.D. 2023-Jul-29 00:00:00.0000, 2.942269836173217E+08, -2.409335377403736E+08, -5.618431578041670E+07,
2460161.500000000, A.D. 2023-Aug-05 00:00:00.0000, 3.019333531953019E+08, -2.321779005594153E+08, -5.599552703368935E+07,
2460168.500000000, A.D. 2023-Aug-12 00:00:00.0000, 3.093828225425740E+08, -2.232246809616112E+08, -5.575909132431653E+07,
2460175.500000000, A.D. 2023-Aug-19 00:00:00.0000, 3.165702464198543E+08, -2.140823576237522E+08, -5.547542478972445E+07,
2460182.500000000, A.D. 2023-Aug-26 00:00:00.0000, 3.234908006615056E+08, -2.047595284897964E+08, -5.514498902037320E+07,
2460189.500000000, A.D. 2023-Sep-02 00:00:00.0000, 3.301399837197969E+08, -1.952648962231708E+08, -5.476828961460821E+07,
2460196.500000000, A.D. 2023-Sep-09 00:00:00.0000, 3.365136174452982E+08, -1.856072539170519E+08, -5.434587468061971E+07,
2460203.500000000, A.D. 2023-Sep-16 00:00:00.0000, 3.426078472999072E+08, -1.757954711636948E+08, -5.387833331417084E+07,
2460210.500000000, A.D. 2023-Sep-23 00:00:00.0000, 3.484191424504696E+08, -1.658384802383747E+08, -5.336629407574347E+07,
2460217.500000000, A.D. 2023-Sep-30 00:00:00.0000, 3.539442954384722E+08, -1.557452612493395E+08, -5.281042334754466E+07,
2460224.500000000, A.D. 2023-Oct-07 00:00:00.0000, 3.591804191070704E+08, -1.455248268386201E+08, -5.221142340715156E+07,
2460231.500000000, A.D. 2023-Oct-14 00:00:00.0000, 3.641249418559430E+08, -1.351862097834168E+08, -5.157003059069420E+07,
2460238.500000000, A.D. 2023-Oct-21 00:00:00.0000, 3.687756044829631E+08, -1.247384519238106E+08, -5.088701371644448E+07,
2460245.500000000, A.D. 2023-Oct-28 00:00:00.0000, 3.731304572230017E+08, -1.141905921813173E+08, -5.016317245920582E+07,
2460252.500000000, A.D. 2023-Nov-04 00:00:00.0000, 3.771878557705972E+08, -1.035516544611844E+08, -4.939933562954046E+07,
2460259.500000000, A.D. 2023-Nov-11 00:00:00.0000, 3.809464565011273E+08, -9.283063605772521E+07, -4.859635942860265E+07,
2460266.500000000, A.D. 2023-Nov-18 00:00:00.0000, 3.844052111473054E+08, -8.203649664312398E+07, -4.775512570914867E+07,
2460273.500000000, A.D. 2023-Nov-25 00:00:00.0000, 3.875633610414376E+08, -7.117814783020867E+07, -4.687654025250629E+07,
2460280.500000000, A.D. 2023-Dec-02 00:00:00.0000, 3.904204309893614E+08, -6.026444333072349E+07, -4.596153106973995E+07,
2460287.500000000, A.D. 2023-Dec-09 00:00:00.0000, 3.929762228911441E+08, -4.930416977607521E+07, -4.501104674346854E+07,
2460294.500000000, A.D. 2023-Dec-16 00:00:00.0000, 3.952308094313216E+08, -3.830603819366290E+07, -4.402605483977813E+07,
2460301.500000000, A.D. 2023-Dec-23 00:00:00.0000, 3.971845282201444E+08, -2.727867545278556E+07, -4.300754036953802E+07,
2460308.500000000, A.D. 2023-Dec-30 00:00:00.0000, 3.988379750811393E+08, -1.623061462830873E+07, -4.195650409396245E+07,
2460315.500000000, A.D. 2024-Jan-06 00:00:00.0000, 4.001919947505582E+08, -5.170286641354179E+06, -4.087396070865941E+07,
2460322.500000000, A.D. 2024-Jan-13 00:00:00.0000, 4.012476721934521E+08, 5.893985017703971E+06, -3.976093734803411E+07,
2460329.500000000, A.D. 2024-Jan-20 00:00:00.0000, 4.020063257878635E+08, 1.695398957497700E+07, -3.861847227253552E+07,
2460336.500000000, A.D. 2024-Jan-27 00:00:00.0000, 4.024695003775690E+08, 2.800163492871880E+07, -3.744761350160941E+07,
2460343.500000000, A.D. 2024-Feb-03 00:00:00.0000, 4.026389597937987E+08, 3.902895333596201E+07, -3.624941743268799E+07,
2460350.500000000, A.D. 2024-Feb-10 00:00:00.0000, 4.025166791502249E+08, 5.002810654977620E+07, -3.502494749720223E+07,
2460357.500000000, A.D. 2024-Feb-17 00:00:00.0000, 4.021048370750118E+08, 6.099139042711288E+07, -3.377527286708099E+07,
2460364.500000000, A.D. 2024-Feb-24 00:00:00.0000, 4.014058079393703E+08, 7.191123903526606E+07, -3.250146721489467E+07,
2460371.500000000, A.D. 2024-Mar-02 00:00:00.0000, 4.004221541341259E+08, 8.278022823866898E+07, -3.120460753377910E+07,
2460378.500000000, A.D. 2024-Mar-09 00:00:00.0000, 3.991566185540299E+08, 9.359107871789332E+07, -2.988577303558081E+07,
2460385.500000000, A.D. 2024-Mar-16 00:00:00.0000, 3.976121177036879E+08, 1.043366586325221E+08, -2.854604414767466E+07,
2460392.500000000, A.D. 2024-Mar-23 00:00:00.0000, 3.957917353359534E+08, 1.150099870523365E+08, -2.718650150812903E+07,
2460399.500000000, A.D. 2024-Mar-30 00:00:00.0000, 3.936987143964135E+08, 1.256042381491857E+08, -2.580822475535197E+07,
2460406.500000000, A.D. 2024-Apr-06 00:00:00.0000, 3.913364475489715E+08, 1.361127428001043E+08, -2.441229141084069E+07,
2460413.500000000, A.D. 2024-Apr-13 00:00:00.0000, 3.887084698479589E+08, 1.465289884525187E+08, -2.299977611211153E+07,
2460420.500000000, A.D. 2024-Apr-20 00:00:00.0000, 3.858184526141334E+08, 1.568466199438377E+08, -2.157174988882203E+07,
2460427.500000000, A.D. 2024-Apr-27 00:00:00.0000, 3.826701970072146E+08, 1.670594407303368E+08, -2.012927938777227E+07,
2460434.500000000, A.D. 2024-May-04 00:00:00.0000, 3.792676273911950E+08, 1.771614138371055E+08, -1.867342611120690E+07,
2460441.500000000, A.D. 2024-May-11 00:00:00.0000, 3.756147847361682E+08, 1.871466624420394E+08, -1.720524569730755E+07,
2460448.500000000, A.D. 2024-May-18 00:00:00.0000, 3.717158201417452E+08, 1.970094701314141E+08, -1.572578724722166E+07,
2460455.500000000, A.D. 2024-May-25 00:00:00.0000, 3.675749885095822E+08, 2.067442808377596E+08, -1.423609270004377E+07,
2460462.500000000, A.D. 2024-Jun-01 00:00:00.0000, 3.631966424293003E+08, 2.163456984215636E+08, -1.273719626450814E+07,
2460469.500000000, A.D. 2024-Jun-08 00:00:00.0000, 3.585852265304625E+08, 2.258084858918680E+08, -1.123012393043861E+07,
2460476.500000000, A.D. 2024-Jun-15 00:00:00.0000, 3.537452727061159E+08, 2.351275648256149E+08, -9.715893050615489E+06,
2460483.500000000, A.D. 2024-Jun-22 00:00:00.0000, 3.486813952040710E+08, 2.442980161727175E+08, -8.195511803137854E+06,
2460490.500000000, A.D. 2024-Jun-29 00:00:00.0000, 3.433982834633982E+08, 2.533150806405269E+08, -6.669978486399397E+06,
2460497.500000000, A.D. 2024-Jul-06 00:00:00.0000, 3.379006953442715E+08, 2.621741562017020E+08, -5.140281089504197E+06,
2460504.500000000, A.D. 2024-Jul-13 00:00:00.0000, 3.321934527007928E+08, 2.708707955600798E+08, -3.607397084699824E+06,
2460511.500000000, A.D. 2024-Jul-20 00:00:00.0000, 3.262814373075616E+08, 2.794007047338421E+08, -2.072293164183810E+06,
2460518.500000000, A.D. 2024-Jul-27 00:00:00.0000, 3.201695864810637E+08, 2.877597418083839E+08, -5.359249379239082E+05,
2460525.500000000, A.D. 2024-Aug-03 00:00:00.0000, 3.138628886664171E+08, 2.959439154954301E+08, 1.000763353275642E+06,
2460532.500000000, A.D. 2024-Aug-10 00:00:00.0000, 3.073663791525730E+08, 3.039493835047934E+08, 2.536839095220044E+06,
2460539.500000000, A.D. 2024-Aug-17 00:00:00.0000, 3.006851359602114E+08, 3.117724507608295E+08, 4.071381526970059E+06,
2460546.500000000, A.D. 2024-Aug-24 00:00:00.0000, 2.938242759266968E+08, 3.194095674512452E+08, 5.603481933510035E+06,
2460553.500000000, A.D. 2024-Aug-31 00:00:00.0000, 2.867889511000301E+08, 3.268573268564233E+08, 7.132243789975256E+06,
2460560.500000000, A.D. 2024-Sep-07 00:00:00.0000, 2.795843458038709E+08, 3.341124630950848E+08, 8.656782835365415E+06,
2460567.500000000, A.D. 2024-Sep-14 00:00:00.0000, 2.722156744557982E+08, 3.411718497900970E+08, 1.017622715027598E+07,
2460574.500000000, A.D. 2024-Sep-21 00:00:00.0000, 2.646881781043752E+08, 3.480325000722435E+08, 1.168971745935319E+07,
2460581.500000000, A.D. 2024-Sep-28 00:00:00.0000, 2.570071191902768E+08, 3.546915647023667E+08, 1.319640744076593E+07,
2460588.500000000, A.D. 2024-Oct-05 00:00:00.0000, 2.491777781987235E+08, 3.611463283238531E+08, 1.469546370751353E+07,
2460595.500000000, A.D. 2024-Oct-12 00:00:00.0000, 2.412054518397689E+08, 3.673942068311575E+08, 1.618606573806106E+07,
2460602.500000000, A.D. 2024-Oct-19 00:00:00.0000, 2.330954509999082E+08, 3.734327455882639E+08, 1.766740589580277E+07,
2460609.500000000, A.D. 2024-Oct-26 00:00:00.0000, 2.248530984274517E+08, 3.792596177014492E+08, 1.913868947598729E+07,
2460616.500000000, A.D. 2024-Nov-02 00:00:00.0000, 2.164837264045248E+08, 3.848726222035413E+08, 2.059913474549681E+07,
2460623.500000000, A.D. 2024-Nov-09 00:00:00.0000, 2.079926744979770E+08, 3.902696821752851E+08, 2.204797296936813E+07,
2460630.500000000, A.D. 2024-Nov-16 00:00:00.0000, 1.993852874106719E+08, 3.954488428083030E+08, 2.348444842268550E+07,
2460637.500000000, A.D. 2024-Nov-23 00:00:00.0000, 1.906669129753488E+08, 4.004082693634145E+08, 2.490781838035282E+07,
2460644.500000000, A.D. 2024-Nov-30 00:00:00.0000, 1.818429004942183E+08, 4.051462449852164E+08, 2.631735306298470E+07,
2460651.500000000, A.D. 2024-Dec-07 00:00:00.0000, 1.729185998386857E+08, 4.096611687976497E+08, 2.771233553562272E+07,
2460658.500000000, A.D. 2024-Dec-14 00:00:00.0000, 1.638993606164433E+08, 4.139515555082282E+08, 2.909206172312322E+07,
2460665.500000000, A.D. 2024-Dec-21 00:00:00.0000, 1.547905290819544E+08, 4.180160352813039E+08, 3.045584065398771E+07,
2460672.500000000, A.D. 2024-Dec-28 00:00:00.0000, 1.455974447558015E+08, 4.218533509171262E+08, 3.180299451031530E+07,
2460679.500000000, A.D. 2025-Jan-04 00:00:00.0000, 1.363254393477565E+08, 4.254623547199262E+08, 3.313285844109327E+07,
2460686.500000000, A.D. 2025-Jan-11 00:00:00.0000, 1.269798361612564E+08, 4.288420067169583E+08, 3.444478044215143E+07,
2460693.500000000, A.D. 2025-Jan-18 00:00:00.0000, 1.175659490590445E+08, 4.319913733091701E+08, 3.573812131224433E+07,
2460700.500000000, A.D. 2025-Jan-25 00:00:00.0000, 1.080890812290769E+08, 4.349096258784989E+08, 3.701225462454414E+07,
2460707.500000000, A.D. 2025-Feb-01 00:00:00.0000, 9.855452393500800E+07, 4.375960393218537E+08, 3.826656669413072E+07,
2460714.500000000, A.D. 2025-Feb-08 00:00:00.0000, 8.896755530428883E+07, 4.400499905330702E+08, 3.950045653837687E+07,
$$EOE